ONEWEB-0210             
1 48787U 21045W   24129.52797961  .00000056  00000+0  11536-3 0  9999
2 48787  87.9049  52.3432 0001487 108.5628 251.5664 13.15551108144257
ONEWEB-0214             
1 48788U 21045X   24128.85293787  .00000183  00000+0  45120-3 0  9999
2 48788  87.9050  52.4662 0001336  92.4521 267.6763 13.15551338143007
ONEWEB-0221             
1 48789U 21045Y   24128.85927894  .00000137  00000+0  32962-3 0  9992
2 48789  87.9056  52.4818 0002021  89.1048 271.0314 13.15547070143094
ONEWEB-0213             
1 48790U 21045Z   24128.84818599  .00000115  00000+0  27164-3 0  9998
2 48790  87.9052  52.4983 0001929  92.6465 267.4886 13.15551221144281
ONEWEB-0212             
1 48791U 21045AA  24129.50973875 -.00000093  00000+0 -28038-3 0  9990
2 48791  87.9053  52.3486 0002014  78.4815 281.6542 13.15549978144370
ONEWEB-0227             
1 48792U 21045AB  24128.82441648 -.00000279  00000+0 -77635-3 0  9996
2 48792  87.9048  52.5009 0001989  84.5367 275.5990 13.15547194144229
ONEWEB-0226             
1 48793U 21045AC  24128.81808077 -.00000442  00000+0 -12076-2 0  9998
2 48793  87.9052  52.5092 0001685  97.3928 262.7394 13.15548549144181
ONEWEB-0224             
1 48794U 21045AD  24128.85769892  .00000192  00000+0  47543-3 0  9992
2 48794  87.9056  52.5205 0002587  93.3064 266.8362 13.15551504142993
